ONEWEB-0092             
1 45437U 20020P   26048.99573767 -.00000144  00000+0 -44352-3 0  9991
2 45437  87.8832  44.7707 0002084  77.4485 282.6876 13.11413738287164
ONEWEB-0085             
1 45438U 20020Q   26049.03217659  .00000066  00000+0  15060-3 0  9998
2 45438  87.8830  44.7685 0001860  84.9079 275.2261 13.11419293287057
ONEWEB-0096             
1 45439U 20020R   26048.49979673  .00000297  00000+0  80122-3 0  9996
2 45439  87.8839  44.8612 0001811  84.2392 275.8943 13.11419227286975
ONEWEB-0037             
1 45440U 20020S   26049.01436353 -.00000714  00000+0 -20514-2 0  9994
2 45440  87.8844  44.7340 0001921  84.8097 275.3250 13.11416721287074
ONEWEB-0042             
1 45441U 20020T   26049.02354376 -.00000192  00000+0 -57855-3 0  9999
2 45441  87.8835  44.7554 0001822  81.7644 278.3690 13.11416437287048
ONEWEB-0098             
1 45442U 20020U   26049.01944423 -.00000439  00000+0 -12746-2 0  9990
2 45442  87.8834  44.7679 0001854  89.7250 270.4091 13.11416192287026
ONEWEB-0055             
1 45443U 20020V   26049.00250938 -.00000344  00000+0 -10051-2 0  9993
2 45443  87.8832  44.7706 0001864  89.3052 270.8289 13.11414959286990
ONEWEB-0093             
1 45444U 20020W   26048.97806757  .00000492  00000+0  13515-2 0  9995
2 45444  87.8836  44.7646 0001614  74.4649 285.6657 13.11416372287050
ONEWEB-0029             
1 45445U 20020X   26048.99402619 -.00000091  00000+0 -29230-3 0  9996
2 45445  87.8837  44.7735 0001703  83.9351 276.1971 13.11413696287033
ONEWEB-0068             
1 45446U 20020Y   26048.97779060  .00000495  00000+0  13601-2 0  9992
2 45446  87.8835  44.7672 0001674  86.0293 274.1026 13.11416407286972
ONEWEB-0046             
1 45447U 20020Z   26048.51166942  .00000528  00000+0  14551-2 0  9994
2 45447  87.8836  44.8669 0001883  78.9512 281.1827 13.11417841286922
ONEWEB-0063             
1 45448U 20020AA  26048.99826686 -.00000266  00000+0 -78641-3 0  9997
2 45448  87.8836  44.7676 0001995  80.7708 279.3646 13.11415587287072
ONEWEB-0019             
1 45449U 20020AB  26048.50303643  .00000310  00000+0  83796-3 0  9993
2 45449  87.8822  44.8625 0001896  90.9193 269.2152 13.11419988286858
ONEWEB-0094             
1 45450U 20020AC  26048.98315858  .00000002  00000+0 -27456-4 0  9999
2 45450  87.9126  29.5141 0001681  86.8561 273.2762 13.17650930290617
ONEWEB-0087             
1 45451U 20020AD  26049.00829390 -.00000442  00000+0 -12832-2 0  9994
2 45451  87.8846  44.7310 0001573  84.0831 276.0476 13.11417107286960
ONEWEB-0082             
1 45452U 20020AE  26049.00504233 -.00000414  00000+0 -12036-2 0  9996
2 45452  87.8839  44.7561 0001624  86.5699 273.5614 13.11415955287053
ONEWEB-0050             
1 45453U 20020AF  26049.07992427  .00001747  00000+0  17942-3 0  9990
2 45453  88.9191 249.4413 0005365  62.6920 297.4855 14.89924164322645
