[{"OBJECT_NAME":"ONEWEB-0092","OBJECT_ID":"2020-020P","EPOCH":"2026-02-17T23:53:51.734688","MEAN_MOTION":13.11413738,"ECCENTRICITY":0.00020844,"INCLINATION":87.8832,"RA_OF_ASC_NODE":44.7707,"ARG_OF_PERICENTER":77.4485,"MEAN_ANOMALY":282.6876,"EPHEMERIS_TYPE":0,"CLASSIFICATION_TYPE":"U","NORAD_CAT_ID":45437,"ELEMENT_SET_NO":999,"REV_AT_EPOCH":28716,"BSTAR":-0.00044352355,"MEAN_MOTION_DOT":-1.44e-6,"MEAN_MOTION_DDOT":0},{"OBJECT_NAME":"ONEWEB-0085","OBJECT_ID":"2020-020Q","EPOCH":"2026-02-18T00:46:20.057376","MEAN_MOTION":13.11419293,"ECCENTRICITY":0.00018606,"INCLINATION":87.883,"RA_OF_ASC_NODE":44.7685,"ARG_OF_PERICENTER":84.9079,"MEAN_ANOMALY":275.2261,"EPHEMERIS_TYPE":0,"CLASSIFICATION_TYPE":"U","NORAD_CAT_ID":45438,"ELEMENT_SET_NO":999,"REV_AT_EPOCH":28705,"BSTAR":0.00015060497,"MEAN_MOTION_DOT":6.6e-7,"MEAN_MOTION_DDOT":0},{"OBJECT_NAME":"ONEWEB-0096","OBJECT_ID":"2020-020R","EPOCH":"2026-02-17T11:59:42.437472","MEAN_MOTION":13.11419227,"ECCENTRICITY":0.00018114,"INCLINATION":87.8839,"RA_OF_ASC_NODE":44.8612,"ARG_OF_PERICENTER":84.2392,"MEAN_ANOMALY":275.8943,"EPHEMERIS_TYPE":0,"CLASSIFICATION_TYPE":"U","NORAD_CAT_ID":45439,"ELEMENT_SET_NO":999,"REV_AT_EPOCH":28697,"BSTAR":0.0008012241,"MEAN_MOTION_DOT":2.97e-6,"MEAN_MOTION_DDOT":0},{"OBJECT_NAME":"ONEWEB-0037","OBJECT_ID":"2020-020S","EPOCH":"2026-02-18T00:20:41.008992","MEAN_MOTION":13.11416721,"ECCENTRICITY":0.00019219,"INCLINATION":87.8844,"RA_OF_ASC_NODE":44.734,"ARG_OF_PERICENTER":84.8097,"MEAN_ANOMALY":275.325,"EPHEMERIS_TYPE":0,"CLASSIFICATION_TYPE":"U","NORAD_CAT_ID":45440,"ELEMENT_SET_NO":999,"REV_AT_EPOCH":28707,"BSTAR":-0.0020513902,"MEAN_MOTION_DOT":-7.14e-6,"MEAN_MOTION_DDOT":0},{"OBJECT_NAME":"ONEWEB-0042","OBJECT_ID":"2020-020T","EPOCH":"2026-02-18T00:33:54.180864","MEAN_MOTION":13.11416437,"ECCENTRICITY":0.00018226,"INCLINATION":87.8835,"RA_OF_ASC_NODE":44.7554,"ARG_OF_PERICENTER":81.7644,"MEAN_ANOMALY":278.369,"EPHEMERIS_TYPE":0,"CLASSIFICATION_TYPE":"U","NORAD_CAT_ID":45441,"ELEMENT_SET_NO":999,"REV_AT_EPOCH":28704,"BSTAR":-0.00057854577,"MEAN_MOTION_DOT":-1.92e-6,"MEAN_MOTION_DDOT":0},{"OBJECT_NAME":"ONEWEB-0098","OBJECT_ID":"2020-020U","EPOCH":"2026-02-18T00:27:59.981472","MEAN_MOTION":13.11416192,"ECCENTRICITY":0.00018542,"INCLINATION":87.8834,"RA_OF_ASC_NODE":44.7679,"ARG_OF_PERICENTER":89.725,"MEAN_ANOMALY":270.4091,"EPHEMERIS_TYPE":0,"CLASSIFICATION_TYPE":"U","NORAD_CAT_ID":45442,"ELEMENT_SET_NO":999,"REV_AT_EPOCH":28702,"BSTAR":-0.0012745907,"MEAN_MOTION_DOT":-4.39e-6,"MEAN_MOTION_DDOT":0},{"OBJECT_NAME":"ONEWEB-0055","OBJECT_ID":"2020-020V","EPOCH":"2026-02-18T00:03:36.810432","MEAN_MOTION":13.11414959,"ECCENTRICITY":0.00018641,"INCLINATION":87.8832,"RA_OF_ASC_NODE":44.7706,"ARG_OF_PERICENTER":89.3052,"MEAN_ANOMALY":270.8289,"EPHEMERIS_TYPE":0,"CLASSIFICATION_TYPE":"U","NORAD_CAT_ID":45443,"ELEMENT_SET_NO":999,"REV_AT_EPOCH":28699,"BSTAR":-0.001005127,"MEAN_MOTION_DOT":-3.44e-6,"MEAN_MOTION_DDOT":0},{"OBJECT_NAME":"ONEWEB-0093","OBJECT_ID":"2020-020W","EPOCH":"2026-02-17T23:28:25.038048","MEAN_MOTION":13.11416372,"ECCENTRICITY":0.0001614,"INCLINATION":87.8836,"RA_OF_ASC_NODE":44.7646,"ARG_OF_PERICENTER":74.4649,"MEAN_ANOMALY":285.6657,"EPHEMERIS_TYPE":0,"CLASSIFICATION_TYPE":"U","NORAD_CAT_ID":45444,"ELEMENT_SET_NO":999,"REV_AT_EPOCH":28705,"BSTAR":0.0013515,"MEAN_MOTION_DOT":4.92e-6,"MEAN_MOTION_DDOT":0},{"OBJECT_NAME":"ONEWEB-0029","OBJECT_ID":"2020-020X","EPOCH":"2026-02-17T23:51:23.862816","MEAN_MOTION":13.11413696,"ECCENTRICITY":0.00017034,"INCLINATION":87.8837,"RA_OF_ASC_NODE":44.7735,"ARG_OF_PERICENTER":83.9351,"MEAN_ANOMALY":276.1971,"EPHEMERIS_TYPE":0,"CLASSIFICATION_TYPE":"U","NORAD_CAT_ID":45445,"ELEMENT_SET_NO":999,"REV_AT_EPOCH":28703,"BSTAR":-0.00029229746,"MEAN_MOTION_DOT":-9.1e-7,"MEAN_MOTION_DDOT":0},{"OBJECT_NAME":"ONEWEB-0068","OBJECT_ID":"2020-020Y","EPOCH":"2026-02-17T23:28:01.107840","MEAN_MOTION":13.11416407,"ECCENTRICITY":0.0001674,"INCLINATION":87.8835,"RA_OF_ASC_NODE":44.7672,"ARG_OF_PERICENTER":86.0293,"MEAN_ANOMALY":274.1026,"EPHEMERIS_TYPE":0,"CLASSIFICATION_TYPE":"U","NORAD_CAT_ID":45446,"ELEMENT_SET_NO":999,"REV_AT_EPOCH":28697,"BSTAR":0.0013601,"MEAN_MOTION_DOT":4.95e-6,"MEAN_MOTION_DDOT":0},{"OBJECT_NAME":"ONEWEB-0046","OBJECT_ID":"2020-020Z","EPOCH":"2026-02-17T12:16:48.237888","MEAN_MOTION":13.11417841,"ECCENTRICITY":0.0001883,"INCLINATION":87.8836,"RA_OF_ASC_NODE":44.8669,"ARG_OF_PERICENTER":78.9512,"MEAN_ANOMALY":281.1827,"EPHEMERIS_TYPE":0,"CLASSIFICATION_TYPE":"U","NORAD_CAT_ID":45447,"ELEMENT_SET_NO":999,"REV_AT_EPOCH":28692,"BSTAR":0.0014551,"MEAN_MOTION_DOT":5.28e-6,"MEAN_MOTION_DDOT":0},{"OBJECT_NAME":"ONEWEB-0063","OBJECT_ID":"2020-020AA","EPOCH":"2026-02-17T23:57:30.256704","MEAN_MOTION":13.11415587,"ECCENTRICITY":0.00019951,"INCLINATION":87.8836,"RA_OF_ASC_NODE":44.7676,"ARG_OF_PERICENTER":80.7708,"MEAN_ANOMALY":279.3646,"EPHEMERIS_TYPE":0,"CLASSIFICATION_TYPE":"U","NORAD_CAT_ID":45448,"ELEMENT_SET_NO":999,"REV_AT_EPOCH":28707,"BSTAR":-0.0007864119,"MEAN_MOTION_DOT":-2.66e-6,"MEAN_MOTION_DDOT":0},{"OBJECT_NAME":"ONEWEB-0019","OBJECT_ID":"2020-020AB","EPOCH":"2026-02-17T12:04:22.347552","MEAN_MOTION":13.11419988,"ECCENTRICITY":0.00018969,"INCLINATION":87.8822,"RA_OF_ASC_NODE":44.8625,"ARG_OF_PERICENTER":90.9193,"MEAN_ANOMALY":269.2152,"EPHEMERIS_TYPE":0,"CLASSIFICATION_TYPE":"U","NORAD_CAT_ID":45449,"ELEMENT_SET_NO":999,"REV_AT_EPOCH":28685,"BSTAR":0.00083796354,"MEAN_MOTION_DOT":3.1e-6,"MEAN_MOTION_DDOT":0},{"OBJECT_NAME":"ONEWEB-0094","OBJECT_ID":"2020-020AC","EPOCH":"2026-02-17T23:35:44.901312","MEAN_MOTION":13.1765093,"ECCENTRICITY":0.0001681,"INCLINATION":87.9126,"RA_OF_ASC_NODE":29.5141,"ARG_OF_PERICENTER":86.8561,"MEAN_ANOMALY":273.2762,"EPHEMERIS_TYPE":0,"CLASSIFICATION_TYPE":"U","NORAD_CAT_ID":45450,"ELEMENT_SET_NO":999,"REV_AT_EPOCH":29061,"BSTAR":-2.7456e-5,"MEAN_MOTION_DOT":2.0e-8,"MEAN_MOTION_DDOT":0},{"OBJECT_NAME":"ONEWEB-0087","OBJECT_ID":"2020-020AD","EPOCH":"2026-02-18T00:11:56.592960","MEAN_MOTION":13.11417107,"ECCENTRICITY":0.00015731,"INCLINATION":87.8846,"RA_OF_ASC_NODE":44.731,"ARG_OF_PERICENTER":84.0831,"MEAN_ANOMALY":276.0476,"EPHEMERIS_TYPE":0,"CLASSIFICATION_TYPE":"U","NORAD_CAT_ID":45451,"ELEMENT_SET_NO":999,"REV_AT_EPOCH":28696,"BSTAR":-0.0012831876,"MEAN_MOTION_DOT":-4.42e-6,"MEAN_MOTION_DDOT":0},{"OBJECT_NAME":"ONEWEB-0082","OBJECT_ID":"2020-020AE","EPOCH":"2026-02-18T00:07:15.657312","MEAN_MOTION":13.11415955,"ECCENTRICITY":0.00016249,"INCLINATION":87.8839,"RA_OF_ASC_NODE":44.7561,"ARG_OF_PERICENTER":86.5699,"MEAN_ANOMALY":273.5614,"EPHEMERIS_TYPE":0,"CLASSIFICATION_TYPE":"U","NORAD_CAT_ID":45452,"ELEMENT_SET_NO":999,"REV_AT_EPOCH":28705,"BSTAR":-0.001203557,"MEAN_MOTION_DOT":-4.14e-6,"MEAN_MOTION_DDOT":0},{"OBJECT_NAME":"ONEWEB-0050","OBJECT_ID":"2020-020AF","EPOCH":"2026-02-18T01:55:05.456928","MEAN_MOTION":14.89924164,"ECCENTRICITY":0.00053656,"INCLINATION":88.9191,"RA_OF_ASC_NODE":249.4413,"ARG_OF_PERICENTER":62.692,"MEAN_ANOMALY":297.4855,"EPHEMERIS_TYPE":0,"CLASSIFICATION_TYPE":"U","NORAD_CAT_ID":45453,"ELEMENT_SET_NO":999,"REV_AT_EPOCH":32264,"BSTAR":0.00017942074,"MEAN_MOTION_DOT":1.747e-5,"MEAN_MOTION_DDOT":0}]
